LEO EXPRESS 1           
1 58301U 23174AX  26068.76789509  .00017303  00000+0  49741-3 0  9998
2 58301  97.5222 152.4092 0078735 115.9210 245.0174 15.32756831129655
YAOGAN-43 02B           
1 60946U 24156B   26068.41368763  .00015184  00000+0  62308-3 0  9993
2 60946  34.9944 105.5294 0002154 182.9946 177.0756 15.23399653 84222
